[{"OBJECT_NAME":"STARLINK-3276","OBJECT_ID":"2021-125AK","EPOCH":"2026-03-09T21:40:15.474432","MEAN_MOTION":15.12414704,"ECCENTRICITY":0.0004579,"INCLINATION":53.2144,"RA_OF_ASC_NODE":247.2888,"ARG_OF_PERICENTER":141.1703,"MEAN_ANOMALY":218.962,"EPHEMERIS_TYPE":0,"CLASSIFICATION_TYPE":"U","NORAD_CAT_ID":50189,"ELEMENT_SET_NO":999,"REV_AT_EPOCH":23668,"BSTAR":0.0016873617,"MEAN_MOTION_DOT":0.00029472,"MEAN_MOTION_DDOT":0},{"OBJECT_NAME":"EOS-4","OBJECT_ID":"2022-013A","EPOCH":"2026-03-08T11:43:14.619360","MEAN_MOTION":15.12745091,"ECCENTRICITY":0.0001929,"INCLINATION":97.5144,"RA_OF_ASC_NODE":75.6612,"ARG_OF_PERICENTER":90.8949,"MEAN_ANOMALY":269.2503,"EPHEMERIS_TYPE":0,"CLASSIFICATION_TYPE":"U","NORAD_CAT_ID":51656,"ELEMENT_SET_NO":999,"REV_AT_EPOCH":22426,"BSTAR":0.00016489167,"MEAN_MOTION_DOT":2.825e-5,"MEAN_MOTION_DDOT":0}]
